NORAD_CAT_ID,OBJECT_NAME,OBJECT_TYPE,EPOCH,MEAN_MOTION,ECCENTRICITY,INCLINATION,RA_OF_ASC_NODE,ARG_OF_PERICENTER,MEAN_ANOMALY,BSTAR,MEAN_MOTION_DOT,MEAN_MOTION_DDOT,TLE_LINE0,TLE_LINE1,TLE_LINE2,SEMIMAJOR_AXIS,PERIOD,APOGEE,PERIGEE,DECAYED
49727.0,STARLINK-3242,PAYLOAD,2021-12-30 04:00:00,15.1879667,0.000168,53.2173,190.1516,42.302,263.4367,-0.033888,-0.00668637,0.0,0 STARLINK-3242,1 49727U 21115D   21364.16667824 -.00668637  00000-0 -33888-1 0  9994,2 49727  53.2173 190.1516 0001680  42.3020 263.4367 15.18796670  5445,6887.613,94.812,510.635,508.321,0.0
49727.0,STARLINK-3242,PAYLOAD,2021-12-30 14:00:01,15.18092277,0.0001866,53.2167,188.2529,39.7336,25.0743,-0.025658,-0.00495203,0.0,0 STARLINK-3242,1 49727U 21115D   21364.58334491 -.00495203  00000-0 -25658-1 0  9994,2 49727  53.2167 188.2529 0001866  39.7336  25.0743 15.18092277  3615,6889.744000000002,94.856,512.894,510.323,0.0
49727.0,STARLINK-3242,PAYLOAD,2021-12-30 22:00:01,15.17743801,0.0001867,53.2176,186.7358,36.699,50.6793,-0.03466,-0.00663669,0.0,0 STARLINK-3242,1 49727U 21115D   21364.91668981 -.00663669  00000-0 -34660-1 0  9991,2 49727  53.2176 186.7358 0001867  36.6990  50.6793 15.17743801  3615,6890.7980000000025,94.878,513.95,511.377,0.0
49727.0,STARLINK-3242,PAYLOAD,2021-12-31 06:00:00,15.1718483,0.0001875,53.217,185.2188,31.3606,78.014,-0.028056,-0.005307,0.0,0 STARLINK-3242,1 49727U 21115D   21365.25001157 -.00530700  00000-0 -28056-1 0  9996,2 49727  53.2170 185.2188 0001875  31.3606  78.0140 15.17184830  5601,6892.491,94.913,515.648,513.063,0.0
49727.0,STARLINK-3242,PAYLOAD,2021-12-31 11:50:43,15.17897564,0.000258,53.2144,184.1184,49.0109,311.111,-0.015406,-0.00303628,0.0,0 STARLINK-3242,1 49727U 21115D   21365.49355475 -.00303628  00000-0 -15406-1 0  9999,2 49727  53.2144 184.1184 0002580  49.0109 311.1110 15.17897564  5641,6890.333000000001,94.868,513.976,510.42,0.0
49727.0,STARLINK-3242,PAYLOAD,2021-12-31 13:25:38,15.17763923,0.0001847,53.2145,183.8192,50.9015,309.2145,-0.015551,-0.0030521,0.0,0 STARLINK-3242,1 49727U 21115D   21365.55946875 -.00305210  00000-0 -15551-1 0  9996,2 49727  53.2145 183.8192 0001847  50.9015 309.2145 15.17763923  4544,6890.736999999999,94.876,513.875,511.33,0.0
49727.0,STARLINK-3242,PAYLOAD,2021-12-31 20:00:01,15.16463702,0.0001943,53.2175,182.5669,34.4221,22.0745,-0.036234,-0.00668401,0.0,0 STARLINK-3242,1 49727U 21115D   21365.83334491 -.00668401  00000-0 -36234-1 0  9997,2 49727  53.2175 182.5669 0001943  34.4221  22.0745 15.16463702  5699,6894.675,94.958,517.88,515.201,0.0
49727.0,STARLINK-3242,PAYLOAD,2021-12-31 21:20:05,15.17329013,0.0003345,53.2139,182.3224,162.82399999999996,197.287,-0.015001,-0.00291372,0.0,0 STARLINK-3242,1 49727U 21115D   21365.88895554 -.00291372  00000-0 -15001-1 0  9992,2 49727  53.2139 182.3224 0003345 162.8240 197.2870 15.17329013  4598,6892.054,94.904,516.224,511.614,0.0
49727.0,STARLINK-3242,PAYLOAD,2022-01-01 14:00:01,15.1541133,0.0002028,53.2175,179.1609,37.7467,154.0833,-0.03706,-0.00663691,0.0,0 STARLINK-3242,1 49727U 21115D   22001.58335648 -.00663691  00000-0 -37060-1 0  9996,2 49727  53.2175 179.1609 0002028  37.7467 154.0833 15.15411330  3633,6897.8669999999975,95.024,521.131,518.3330000000002,0.0
49727.0,STARLINK-3242,PAYLOAD,2022-01-01 22:00:00,15.14941581,0.0001932,53.2174,177.65099999999995,40.4923,170.4831,-0.037226,-0.0065816,0.0,0 STARLINK-3242,1 49727U 21115D   22001.91667824 -.00658160  00000-0 -37226-1 0  9996,2 49727  53.2174 177.6510 0001932  40.4923 170.4831 15.14941581  3632,6899.293000000002,95.053,522.491,519.825,0.0
49727.0,STARLINK-3242,PAYLOAD,2022-01-02 04:00:00,15.1459571,0.0001929,53.2173,176.5168,36.9588,98.0543,-0.038017,-0.00665109,0.0,0 STARLINK-3242,1 49727U 21115D   22002.16667824 -.00665109  00000-0 -38017-1 0  9994,2 49727  53.2173 176.5168 0001929  36.9588  98.0543 15.14595710  5895,6900.343000000003,95.075,523.539,520.877,0.0
49727.0,STARLINK-3242,PAYLOAD,2022-01-02 14:00:01,15.14011606,0.0002129,53.2174,174.63,33.929,213.7809,-0.03855,-0.00663491,0.0,0 STARLINK-3242,1 49727U 21115D   22002.58334491 -.00663491  00000-0 -38550-1 0  9995,2 49727  53.2174 174.6300 0002129  33.9290 213.7809 15.14011606  3631,6902.118,95.112,525.452,522.513,0.0
49727.0,STARLINK-3242,PAYLOAD,2022-01-02 22:00:00,15.13542296,0.0001995,53.2173,173.1232,35.5814,229.6549,-0.038753,-0.00658513,0.0,0 STARLINK-3242,1 49727U 21115D   22002.91667824 -.00658513  00000-0 -38753-1 0  9995,2 49727  53.2173 173.1232 0001995  35.5814 229.6549 15.13542296  3638,6903.545,95.141,526.7869999999998,524.0319999999998,0.0
49727.0,STARLINK-3242,PAYLOAD,2022-01-03 12:00:00,15.12728996,0.0001899,53.2175,170.4847,42.7824,161.776,-0.03999,-0.00663786,0.0,0 STARLINK-3242,1 49727U 21115D   22003.50001157 -.00663786  00000-0 -39990-1 0  9994,2 49727  53.2175 170.4847 0001899  42.7824 161.7760 15.12728996  6104,6906.019,95.192,529.195,526.572,0.0
49727.0,STARLINK-3242,PAYLOAD,2022-01-03 14:00:01,15.12612199,0.0001795,53.2174,170.1088,41.83,256.7771,-0.04013,-0.00663909,0.0,0 STARLINK-3242,1 49727U 21115D   22003.58334491 -.00663909  00000-0 -40130-1 0  9997,2 49727  53.2174 170.1088 0001795  41.8300 256.7771 15.12612199  3630,6906.374,95.2,529.479,527.0,0.0
49727.0,STARLINK-3242,PAYLOAD,2022-01-03 22:00:00,15.12143544,0.0001742,53.2172,168.6051,41.7307,272.7208,-0.0404,-0.00659911,0.0,0 STARLINK-3242,1 49727U 21115D   22003.91667824 -.00659911  00000-0 -40400-1 0  9991,2 49727  53.2172 168.6051 0001742  41.7307 272.7208 15.12143544  3634,6907.801,95.229,530.87,528.4630000000002,0.0
49727.0,STARLINK-3242,PAYLOAD,2022-01-04 14:00:01,15.11122931,0.0001656,53.2171,165.5981,47.1399,297.3647,-0.033585,-0.00534824,0.0,0 STARLINK-3242,1 49727U 21115D   22004.58334491 -.00534824  00000-0 -33585-1 0  9997,2 49727  53.2171 165.5981 0001656  47.1399 297.3647 15.11122931  3609,6910.911,95.293,533.9209999999998,531.632,0.0
49727.0,STARLINK-3242,PAYLOAD,2022-01-04 20:00:01,15.10861159,0.0001869,53.2174,164.4721,42.7229,222.41,-0.041976,-0.00661458,0.0,0 STARLINK-3242,1 49727U 21115D   22004.83334491 -.00661458  00000-0 -41976-1 0  9992,2 49727  53.2174 164.4721 0001869  42.7229 222.4100 15.10861159  6305,6911.709,95.31,534.866,532.283,0.0
49727.0,STARLINK-3242,PAYLOAD,2022-01-04 20:25:43,15.1196238,0.000139,53.2158,164.4043,30.1432,329.9641,-0.011616,-0.00196392,0.0,0 STARLINK-3242,1 49727U 21115D   22004.85119655 -.00196392  00000-0 -11616-1 0  9995,2 49727  53.2158 164.4043 0001390  30.1432 329.9641 15.11962380  5198,6908.353,95.24,531.178,529.258,0.0
49727.0,STARLINK-3242,PAYLOAD,2022-01-05 14:00:01,15.09691941,0.000154,53.2174,161.0965,40.7234,344.6053,-0.032179,-0.00494837,0.0,0 STARLINK-3242,1 49727U 21115D   22005.58334491 -.00494837  00000-0 -32179-1 0  9995,2 49727  53.2174 161.0965 0001540  40.7234 344.6053 15.09691941  3598,6915.278,95.384,538.2080000000002,536.078,0.0
49727.0,STARLINK-3242,PAYLOAD,2022-01-05 20:00:01,15.09456613,0.0001695,53.2175,159.9729,46.9388,257.7397,-0.042925,-0.00651251,0.0,0 STARLINK-3242,1 49727U 21115D   22005.83334491 -.00651251  00000-0 -42925-1 0  9998,2 49727  53.2175 159.9729 0001695  46.9388 257.7397 15.09456613  6450,6915.996,95.399,539.034,536.689,0.0
49727.0,STARLINK-3242,PAYLOAD,2022-01-05 22:00:00,15.09308673,0.0001694,53.2172,159.5983,43.2603,354.492,-0.037595,-0.00567143,0.0,0 STARLINK-3242,1 49727U 21115D   22005.91667824 -.00567143  00000-0 -37595-1 0  9999,2 49727  53.2172 159.5983 0001694  43.2603 354.4920 15.09308673  3629,6916.448,95.408,539.485,537.1419999999998,0.0
49727.0,STARLINK-3242,PAYLOAD,2022-01-06 06:00:00,15.08837432,0.0001685,53.2174,158.0994,43.4162,6.2532,-5.591300000000001e-05,-1.178e-05,0.0,0 STARLINK-3242,1 49727U 21115D   22006.25001157 -.00001178  00000-0 -55913-4 0  9996,2 49727  53.2174 158.0994 0001685  43.4162   6.2532 15.08837432  6510,6917.888000000001,95.438,540.919,538.5880000000002,0.0
49727.0,STARLINK-3242,PAYLOAD,2022-01-06 14:00:01,15.08699675,0.0001776,53.2173,156.6058,40.4951,20.9044,0.0064155,0.00102913,0.0,0 STARLINK-3242,1 49727U 21115D   22006.58334491  .00102913  00000-0  64155-2 0  9995,2 49727  53.2173 156.6058 0001776  40.4951  20.9044 15.08699675  3623,6918.309,95.446,541.403,538.946,0.0
49727.0,STARLINK-3242,PAYLOAD,2022-01-06 22:00:00,15.08841774,0.0001972,53.2158,155.1154,38.9142,34.0604,0.0012696,0.00019977,0.0,0 STARLINK-3242,1 49727U 21115D   22006.91667824  .00019977  00000-0  12696-2 0  9991,2 49727  53.2158 155.1154 0001972  38.9142  34.0604 15.08841774  6618,6917.875,95.437,541.104,538.376,0.0
49727.0,STARLINK-3242,PAYLOAD,2022-01-07 14:00:01,15.08871324,0.0001858,53.2159,152.1222,43.539,52.6493,-0.0023835,-0.00038055,0.0,0 STARLINK-3242,1 49727U 21115D   22007.58334491 -.00038055  00000-0 -23835-2 0  9993,2 49727  53.2159 152.1222 0001858  43.5390  52.6493 15.08871324  3592,6917.785,95.436,540.935,538.364,0.0
49727.0,STARLINK-3242,PAYLOAD,2022-01-07 22:00:00,15.08847492,0.0001914,53.2154,150.6263,38.194,69.6123,-0.0015231,-0.00024452,0.0,0 STARLINK-3242,1 49727U 21115D   22007.91667824 -.00024452  00000-0 -15231-2 0  9996,2 49727  53.2154 150.6263 0001914  38.1940  69.6123 15.08847492  6768,6917.857,95.437,541.047,538.398,0.0
49727.0,STARLINK-3242,PAYLOAD,2022-01-08 14:00:01,15.08841706,0.0001825,53.2153,147.6332,41.8005,89.1772,-0.0019027,-0.00030444,0.0,0 STARLINK-3242,1 49727U 21115D   22008.58334491 -.00030444  00000-0 -19027-2 0  9996,2 49727  53.2153 147.6332 0001825  41.8005  89.1772 15.08841706  3591,6917.875,95.437,541.003,538.4780000000002,0.0
49727.0,STARLINK-3242,PAYLOAD,2022-01-08 22:00:00,15.0882862,0.0001925,53.2149,146.1371,38.0248,104.5356,0.00033837,5.1e-05,0.0,0 STARLINK-3242,1 49727U 21115D   22008.91667824  .00005100  00000-0  33837-3 0  9997,2 49727  53.2149 146.1371 0001925  38.0248 104.5356 15.08828620  6921,6917.915,95.438,541.112,538.448,0.0
